GLOBALSTAR M068 [-]     
1 32266U 07048D   23243.24808696 -.00000062  00000+0  23504-3 0  9990
2 32266  51.9879 141.6735 0001133  98.0574  54.9017 12.62765270734972
GLOBALSTAR M079 [+]     
1 37188U 10054A   23243.70451397 -.00000078  00000+0  14595-3 0  9999
2 37188  52.0065 335.1838 0000446 101.5105  17.3831 12.62267261594359
GLOBALSTAR M074 [+]     
1 37189U 10054B   23243.23446642 -.00000073  00000+0  17060-3 0  9990
2 37189  52.0038 336.0389 0000666 103.9542 277.9269 12.62269240594297
GLOBALSTAR M076 [+]     
1 37190U 10054C   23242.56624208 -.00000085  00000+0  10594-3 0  9991
2 37190  52.0051 338.1821 0000691  52.8251  52.3626 12.62260416593854
GLOBALSTAR M077 [+]     
1 37191U 10054D   23242.88438575 -.00000099  00000+0  24970-4 0  9996
2 37191  52.0077 293.8839 0000505 107.9929  62.1370 12.62260348594262
GLOBALSTAR M075 [+]     
1 37192U 10054E   23243.12150412 -.00000097  00000+0  37625-4 0  9995
2 37192  51.9969  19.1122 0000560  88.0072 320.8406 12.62260636593526
GLOBALSTAR M073 [+]     
1 37193U 10054F   23242.40141287 -.00000067  00000+0  20588-3 0  9992
2 37193  52.0060 294.6276 0000427 111.1933 263.4914 12.62266958594897
GLOBALSTAR M083 [+]     
1 37739U 11033A   23243.05326762 -.00000108  00000+0 -22209-4 0  9991
2 37739  51.9838 242.2678 0000262 149.5295 249.7098 12.62268655564356
GLOBALSTAR M088 [+]     
1 37740U 11033B   23242.50148307 -.00000095  00000+0  47235-4 0  9999
2 37740  51.9727 149.9922 0000287  41.1232 129.1881 12.62264983559462
GLOBALSTAR M091 [+]     
1 37741U 11033C   23243.06476149 -.00000077  00000+0  14916-3 0  9999
2 37741  51.9989 110.6580 0000388  64.0200  86.5752 12.62265903560580
GLOBALSTAR M085 [+]     
1 37742U 11033D   23242.78350483 -.00000095  00000+0  47487-4 0  9990
2 37742  51.9869  63.1313 0000584  89.4483 283.3326 12.62266621561297
GLOBALSTAR M081 [+]     
1 37743U 11033E   23243.00312340 -.00000090  00000+0  79198-4 0  9996
2 37743  51.9958  64.8456 0000533  63.7115 107.0469 12.62270600561353
GLOBALSTAR M089 [+]     
1 37744U 11033F   23242.71147097 -.00000109  00000+0 -31710-4 0  9999
2 37744  51.9951  20.0853 0000860  77.5811  26.9802 12.62266274561780
GLOBALSTAR M084 [+]     
1 38040U 11080A   23243.02545279 -.00000094  00000+0  53629-4 0  9995
2 38040  51.9985 246.0721 0000471  68.2690 323.2143 12.62265300540081
GLOBALSTAR M080 [+]     
1 38041U 11080B   23243.15796344 -.00000104  00000+0 -10900-5 0  9990
2 38041  52.0039 247.0440 0000482  45.6341 348.8370 12.62264015540084
GLOBALSTAR M082 [+]     
1 38042U 11080C   23243.16642038 -.00000122  00000+0 -10329-3 0  9995
2 38042  52.0059 202.3939 0000453 163.8699 208.9315 12.62270231540825
GLOBALSTAR M092 [+]     
1 38043U 11080D   23242.85839581 -.00000075  00000+0  16101-3 0  9992
2 38043  52.0081 293.6760 0000736  92.2289  80.3557 12.62271947539069
GLOBALSTAR M090 [+]     
1 38044U 11080E   23243.19298163 -.00000119  00000+0 -82337-4 0  9991
2 38044  51.9869 196.9674 0000122  74.4651 299.1032 12.62267149540817
GLOBALSTAR M086 [+]     
1 38045U 11080F   23243.13979994 -.00000116  00000+0 -68100-4 0  9993
2 38045  51.9881 197.6281 0001005 327.3522  45.2207 12.62269806540818
GLOBALSTAR M097 [+]     
1 39072U 13005A   23243.00543510 -.00000075  00000+0  16155-3 0  9995
2 39072  52.0038 111.9204 0000373  67.6509 292.4397 12.62270363488025
GLOBALSTAR M093 [+]     
1 39073U 13005B   23242.89961850 -.00000080  00000+0  13228-3 0  9997
2 39073  51.9804 106.5944 0000213  42.0291 318.0592 12.62266275487886
GLOBALSTAR M094 [+]     
1 39074U 13005C   23243.13722837 -.00000108  00000+0 -22163-4 0  9997
2 39074  51.9982  19.5965 0000564  92.8754 267.2177 12.62266993489542
GLOBALSTAR M096 [+]     
1 39075U 13005D   23243.22945782 -.00000097  00000+0  38726-4 0  9992
2 39075  52.0073  67.3161 0000461  81.4850 278.6069 12.62268181488807
GLOBALSTAR M078 [+]     
1 39076U 13005E   23243.12362523 -.00000002  00000+0  56962-3 0  9995
2 39076  51.9865 153.0399 0000981 137.9934 222.1008 12.62271400487273
GLOBALSTAR M095 [+]     
1 39077U 13005F   23243.07135425 -.00000084  00000+0  10816-3 0  9997
2 39077  51.9792 150.7252 0000365 149.3197 210.7691 12.62268237487274
GLOBALSTAR M087 [+]     
1 52888U 22064A   23243.13560929 -.00000088  00000+0  76306-4 0  9996
2 52888  51.9750 143.2462 0009585 349.8008  10.2697 13.37551520 58573
